CCSDS_OCM_VERS  = 3.0

CREATION_DATE   = 2022-11-06T09:23:57
ORIGINATOR      = JAXA

META_START
OBJECT_NAME     = OSPREY 5
INTERNATIONAL_DESIGNATOR = 2022-999A
TIME_SYSTEM     = UTC
EPOCH_TZERO     = 2022-12-18T14:28:15.1172
META_STOP

TRAJ_START
COMMENT           GEOCENTRIC, CARTESIAN, EARTH FIXED
TRAJ_BASIS       = PREDICTED
CENTER_NAME      = EARTH
TRAJ_REF_FRAME   = TOD_EARTH
TRAJ_FRAME_EPOCH = 2022-12-18T14:28:15.1172
TRAJ_TYPE        = CARTPVA

   0.0  2854.5 -2916.2 -5360.7 5.90 4.86 0.52 0.0037 -0.0038 -0.0070
 120.0  5478.6   434.3 -3862.5 2.50 5.87 4.29 0.0072  0.0006 -0.0051
 240.0  4146.0 -1655.8 -5038.3 4.80 5.58 2.16 0.0054 -0.0022 -0.0066
86400  -1553.4 -4848.7 -4406.5 6.73 1.01 -3.53 -0.002 -0.0063 -0.0058
TRAJ_STOP

PHYS_START
COMMENT Spacecraft Physical Characteristics:
DRAG_CONST_AREA =      10.000         [m**2]
DRAG_COEFF_NOM  =       2.300
WET_MASS        =    1913.000         [kg]
SRP_CONST_AREA  =      10.000         [m**2]
SOLAR_RAD_COEFF =       1.300
PHYS_STOP

COV_START
COV_BASIS       = PREDICTED
COV_REF_FRAME   = J2000
COV_TYPE        = ADBARV
COV_ORDERING    = LTM
COV_UNITS       = [deg, deg, deg, deg, km, km/s]
10.00 3.331349e-04  4.618927e-04  6.782421e-04 -3.070007e-04 -4.221234e-04 3.231931e-04 -3.349365e-07 -4.686084e-07  2.484949e-07  4.296022e-10 -2.211832e-07 -2.864186e-07  1.798098e-07  2.608899e-10  1.767514e-10 -3.041346e-07 -4.989496e-07  3.540310e-07  1.869263e-10  1.008862e-10  6.224444e-10
20.0  3.442450e-04  4.507816e-04  6.893532e-04 -3.060006e-04 -4.110123e-04 3.342042e-04 -3.238254e-07 -4.575073e-07  2.373838e-07  4.307133e-10 -2.100721e-07 -2.753075e-07  1.687087e-07  2.507788e-10  1.878625e-10 -3.030235e-07 -4.878385e-07  3.430200e-07  1.758152e-10  1.007751e-10  6.224444e-10
COV_STOP

COV_START
COV_BASIS       = PREDICTED
COV_REF_FRAME   = FIXED_EARTH
COV_TYPE        = CARTP
COV_UNITS       = [km, km, km]
2022-12-18T14:31:35.1172  3.331349e-04  4.618927e-04  6.782421e-04 -3.070007e-04 -4.221234e-04  3.231931e-04
COV_STOP

PERT_START
COMMENT  Perturbations specification
GM              =  398600.4415        [km**3/s**2]
PERT_STOP
